CCSDS_OMM_VERS = 2.0
CREATION_DATE  = 
ORIGINATOR     = 

OBJECT_NAME    = STARLINK-37215
OBJECT_ID      = 2026-063N
CENTER_NAME    = EARTH
REF_FRAME      = TEME
TIME_SYSTEM    = UTC
MEAN_ELEMENT_THEORY = SGP/SGP4

EPOCH          = 2026-04-04T22:00:01.999584
MEAN_MOTION    = 15.91468341
ECCENTRICITY   = .00013313
INCLINATION    = 97.2819
RA_OF_ASC_NODE = 235.8926
ARG_OF_PERICENTER = 66.4076
MEAN_ANOMALY   = 300.6445

EPHEMERIS_TYPE = 0
CLASSIFICATION_TYPE = U
NORAD_CAT_ID   = 68392
ELEMENT_SET_NO = 999
REV_AT_EPOCH   = 267
BSTAR          = -.69539361E-2
MEAN_MOTION_DOT = -.2203701E-1
MEAN_MOTION_DDOT = .13026504E-2

CCSDS_OMM_VERS = 2.0
CREATION_DATE  = 
ORIGINATOR     = 

OBJECT_NAME    = STARLINK-37184
OBJECT_ID      = 2026-063P
CENTER_NAME    = EARTH
REF_FRAME      = TEME
TIME_SYSTEM    = UTC
MEAN_ELEMENT_THEORY = SGP/SGP4

EPOCH          = 2026-04-04T22:00:01.999584
MEAN_MOTION    = 15.91572790
ECCENTRICITY   = .00013656
INCLINATION    = 97.2819
RA_OF_ASC_NODE = 235.8941
ARG_OF_PERICENTER = 68.3201
MEAN_ANOMALY   = 302.2937

EPHEMERIS_TYPE = 0
CLASSIFICATION_TYPE = U
NORAD_CAT_ID   = 68393
ELEMENT_SET_NO = 999
REV_AT_EPOCH   = 267
BSTAR          = -.69448644E-2
MEAN_MOTION_DOT = -.221251E-1
MEAN_MOTION_DDOT = .13140374E-2

CCSDS_OMM_VERS = 2.0
CREATION_DATE  = 
ORIGINATOR     = 

OBJECT_NAME    = STARLINK-37157
OBJECT_ID      = 2026-063Q
CENTER_NAME    = EARTH
REF_FRAME      = TEME
TIME_SYSTEM    = UTC
MEAN_ELEMENT_THEORY = SGP/SGP4

EPOCH          = 2026-04-04T22:00:01.999584
MEAN_MOTION    = 15.91709360
ECCENTRICITY   = .00014454
INCLINATION    = 97.2815
RA_OF_ASC_NODE = 235.8949
ARG_OF_PERICENTER = 61.9092
MEAN_ANOMALY   = 311.7735

EPHEMERIS_TYPE = 0
CLASSIFICATION_TYPE = U
NORAD_CAT_ID   = 68394
ELEMENT_SET_NO = 999
REV_AT_EPOCH   = 267
BSTAR          = -.69354182E-2
MEAN_MOTION_DOT = -.2224877E-1
MEAN_MOTION_DDOT = .13300044E-2

CCSDS_OMM_VERS = 2.0
CREATION_DATE  = 
ORIGINATOR     = 

OBJECT_NAME    = STARLINK-37172
OBJECT_ID      = 2026-063R
CENTER_NAME    = EARTH
REF_FRAME      = TEME
TIME_SYSTEM    = UTC
MEAN_ELEMENT_THEORY = SGP/SGP4

EPOCH          = 2026-04-04T22:00:01.999584
MEAN_MOTION    = 15.91944757
ECCENTRICITY   = .00013987
INCLINATION    = 97.2811
RA_OF_ASC_NODE = 235.8975
ARG_OF_PERICENTER = 63.7288
MEAN_ANOMALY   = 316.6145

EPHEMERIS_TYPE = 0
CLASSIFICATION_TYPE = U
NORAD_CAT_ID   = 68395
ELEMENT_SET_NO = 999
REV_AT_EPOCH   = 267
BSTAR          = -.68954925E-2
MEAN_MOTION_DOT = -.2238753E-1
MEAN_MOTION_DDOT = .13492654E-2

CCSDS_OMM_VERS = 2.0
CREATION_DATE  = 
ORIGINATOR     = 

OBJECT_NAME    = STARLINK-37190
OBJECT_ID      = 2026-063S
CENTER_NAME    = EARTH
REF_FRAME      = TEME
TIME_SYSTEM    = UTC
MEAN_ELEMENT_THEORY = SGP/SGP4

EPOCH          = 2026-04-04T22:00:01.999584
MEAN_MOTION    = 15.91832305
ECCENTRICITY   = .00014161
INCLINATION    = 97.2810
RA_OF_ASC_NODE = 235.8962
ARG_OF_PERICENTER = 65.2862
MEAN_ANOMALY   = 311.5335

EPHEMERIS_TYPE = 0
CLASSIFICATION_TYPE = U
NORAD_CAT_ID   = 68396
ELEMENT_SET_NO = 999
REV_AT_EPOCH   = 267
BSTAR          = -.68686872E-2
MEAN_MOTION_DOT = -.2217451E-1
MEAN_MOTION_DDOT = .13232735E-2

CCSDS_OMM_VERS = 2.0
CREATION_DATE  = 
ORIGINATOR     = 

OBJECT_NAME    = STARLINK-37194
OBJECT_ID      = 2026-063T
CENTER_NAME    = EARTH
REF_FRAME      = TEME
TIME_SYSTEM    = UTC
MEAN_ELEMENT_THEORY = SGP/SGP4

EPOCH          = 2026-04-04T22:00:01.999584
MEAN_MOTION    = 15.92058564
ECCENTRICITY   = .00014662
INCLINATION    = 97.2810
RA_OF_ASC_NODE = 235.8992
ARG_OF_PERICENTER = 59.3653
MEAN_ANOMALY   = 324.3162

EPHEMERIS_TYPE = 0
CLASSIFICATION_TYPE = U
NORAD_CAT_ID   = 68397
ELEMENT_SET_NO = 999
REV_AT_EPOCH   = 267
BSTAR          = -.6870255E-2
MEAN_MOTION_DOT = -.2243602E-1
MEAN_MOTION_DDOT = .13565081E-2

CCSDS_OMM_VERS = 2.0
CREATION_DATE  = 
ORIGINATOR     = 

OBJECT_NAME    = STARLINK-37220
OBJECT_ID      = 2026-063U
CENTER_NAME    = EARTH
REF_FRAME      = TEME
TIME_SYSTEM    = UTC
MEAN_ELEMENT_THEORY = SGP/SGP4

EPOCH          = 2026-04-04T22:00:01.999584
MEAN_MOTION    = 15.92284089
ECCENTRICITY   = .00015594
INCLINATION    = 97.2808
RA_OF_ASC_NODE = 235.9024
ARG_OF_PERICENTER = 58.0585
MEAN_ANOMALY   = 332.2280

EPHEMERIS_TYPE = 0
CLASSIFICATION_TYPE = U
NORAD_CAT_ID   = 68398
ELEMENT_SET_NO = 999
REV_AT_EPOCH   = 267
BSTAR          = -.67896188E-2
MEAN_MOTION_DOT = -.2243175E-1
MEAN_MOTION_DDOT = .13593005E-2

CCSDS_OMM_VERS = 2.0
CREATION_DATE  = 
ORIGINATOR     = 

OBJECT_NAME    = STARLINK-37187
OBJECT_ID      = 2026-063V
CENTER_NAME    = EARTH
REF_FRAME      = TEME
TIME_SYSTEM    = UTC
MEAN_ELEMENT_THEORY = SGP/SGP4

EPOCH          = 2026-04-04T22:00:01.999584
MEAN_MOTION    = 15.92012596
ECCENTRICITY   = .00027107
INCLINATION    = 97.2809
RA_OF_ASC_NODE = 235.9012
ARG_OF_PERICENTER = 55.9884
MEAN_ANOMALY   = 331.2208

EPHEMERIS_TYPE = 0
CLASSIFICATION_TYPE = U
NORAD_CAT_ID   = 68399
ELEMENT_SET_NO = 999
REV_AT_EPOCH   = 267
BSTAR          = -.68012373E-2
MEAN_MOTION_DOT = -.221664E-1
MEAN_MOTION_DDOT = .1324894E-2

CCSDS_OMM_VERS = 2.0
CREATION_DATE  = 
ORIGINATOR     = 

OBJECT_NAME    = STARLINK-36235
OBJECT_ID      = 2026-063W
CENTER_NAME    = EARTH
REF_FRAME      = TEME
TIME_SYSTEM    = UTC
MEAN_ELEMENT_THEORY = SGP/SGP4

EPOCH          = 2026-04-04T22:00:01.999584
MEAN_MOTION    = 15.92388296
ECCENTRICITY   = .00013387
INCLINATION    = 97.2801
RA_OF_ASC_NODE = 235.9035
ARG_OF_PERICENTER = 70.3686
MEAN_ANOMALY   = 323.5055

EPHEMERIS_TYPE = 0
CLASSIFICATION_TYPE = U
NORAD_CAT_ID   = 68400
ELEMENT_SET_NO = 999
REV_AT_EPOCH   = 267
BSTAR          = -.67948218E-2
MEAN_MOTION_DOT = -.2256777E-1
MEAN_MOTION_DDOT = .13766607E-2

CCSDS_OMM_VERS = 2.0
CREATION_DATE  = 
ORIGINATOR     = 

OBJECT_NAME    = STARLINK-37175
OBJECT_ID      = 2026-063X
CENTER_NAME    = EARTH
REF_FRAME      = TEME
TIME_SYSTEM    = UTC
MEAN_ELEMENT_THEORY = SGP/SGP4

EPOCH          = 2026-04-04T22:00:01.999584
MEAN_MOTION    = 15.92492933
ECCENTRICITY   = .00015836
INCLINATION    = 97.2804
RA_OF_ASC_NODE = 235.9054
ARG_OF_PERICENTER = 56.5943
MEAN_ANOMALY   = 340.8090

EPHEMERIS_TYPE = 0
CLASSIFICATION_TYPE = U
NORAD_CAT_ID   = 68401
ELEMENT_SET_NO = 999
REV_AT_EPOCH   = 267
BSTAR          = -.67846942E-2
MEAN_MOTION_DOT = -.2265606E-1
MEAN_MOTION_DDOT = .13885726E-2

CCSDS_OMM_VERS = 2.0
CREATION_DATE  = 
ORIGINATOR     = 

OBJECT_NAME    = STARLINK-36360
OBJECT_ID      = 2026-063Y
CENTER_NAME    = EARTH
REF_FRAME      = TEME
TIME_SYSTEM    = UTC
MEAN_ELEMENT_THEORY = SGP/SGP4

EPOCH          = 2026-04-04T22:00:01.999584
MEAN_MOTION    = 15.92593315
ECCENTRICITY   = .00015114
INCLINATION    = 97.2800
RA_OF_ASC_NODE = 235.9067
ARG_OF_PERICENTER = 63.8479
MEAN_ANOMALY   = 337.0120

EPHEMERIS_TYPE = 0
CLASSIFICATION_TYPE = U
NORAD_CAT_ID   = 68402
ELEMENT_SET_NO = 999
REV_AT_EPOCH   = 267
BSTAR          = -.67340795E-2
MEAN_MOTION_DOT = -.2260422E-1
MEAN_MOTION_DDOT = .13839903E-2

CCSDS_OMM_VERS = 2.0
CREATION_DATE  = 
ORIGINATOR     = 

OBJECT_NAME    = STARLINK-37218
OBJECT_ID      = 2026-063Z
CENTER_NAME    = EARTH
REF_FRAME      = TEME
TIME_SYSTEM    = UTC
MEAN_ELEMENT_THEORY = SGP/SGP4

EPOCH          = 2026-04-04T22:00:01.999584
MEAN_MOTION    = 15.92846285
ECCENTRICITY   = .00015388
INCLINATION    = 97.2805
RA_OF_ASC_NODE = 235.9107
ARG_OF_PERICENTER = 55.7562
MEAN_ANOMALY   = 351.4912

EPHEMERIS_TYPE = 0
CLASSIFICATION_TYPE = U
NORAD_CAT_ID   = 68403
ELEMENT_SET_NO = 999
REV_AT_EPOCH   = 267
BSTAR          = -.67043446E-2
MEAN_MOTION_DOT = -.227993E-1
MEAN_MOTION_DDOT = .14108749E-2

