STARLINK-37215          
1 68392U 26063N   26094.91668981 -.02203701  13027-2 -69539-2 0  9990
2 68392  97.2819 235.8926 0001331  66.4076 300.6445 15.91468341  2677
STARLINK-37184          
1 68393U 26063P   26094.91668981 -.02212510  13140-2 -69449-2 0  9995
2 68393  97.2819 235.8941 0001365  68.3201 302.2937 15.91572790  2671
STARLINK-37157          
1 68394U 26063Q   26094.91668981 -.02224877  13300-2 -69354-2 0  9998
2 68394  97.2815 235.8949 0001445  61.9092 311.7735 15.91709360  2678
STARLINK-37172          
1 68395U 26063R   26094.91668981 -.02238753  13493-2 -68955-2 0  9996
2 68395  97.2811 235.8975 0001398  63.7288 316.6145 15.91944757  2678
STARLINK-37190          
1 68396U 26063S   26094.91668981 -.02217451  13233-2 -68687-2 0  9993
2 68396  97.2810 235.8962 0001416  65.2862 311.5335 15.91832305  2670
STARLINK-37194          
1 68397U 26063T   26094.91668981 -.02243602  13565-2 -68703-2 0  9998
2 68397  97.2810 235.8992 0001466  59.3653 324.3162 15.92058564  2679
STARLINK-37220          
1 68398U 26063U   26094.91668981 -.02243175  13593-2 -67896-2 0  9997
2 68398  97.2808 235.9024 0001559  58.0585 332.2280 15.92284089  2679
STARLINK-37187          
1 68399U 26063V   26094.91668981 -.02216640  13249-2 -68012-2 0  9994
2 68399  97.2809 235.9012 0002710  55.9884 331.2208 15.92012596  2677
STARLINK-36235          
1 68400U 26063W   26094.91668981 -.02256777  13767-2 -67948-2 0  9994
2 68400  97.2801 235.9035 0001338  70.3686 323.5055 15.92388296  2670
STARLINK-37175          
1 68401U 26063X   26094.91668981 -.02265606  13886-2 -67847-2 0  9996
2 68401  97.2804 235.9054 0001583  56.5943 340.8090 15.92492933  2674
STARLINK-36360          
1 68402U 26063Y   26094.91668981 -.02260422  13840-2 -67341-2 0  9997
2 68402  97.2800 235.9067 0001511  63.8479 337.0120 15.92593315  2679
STARLINK-37218          
1 68403U 26063Z   26094.91668981 -.02279930  14109-2 -67043-2 0  9990
2 68403  97.2805 235.9107 0001538  55.7562 351.4912 15.92846285  2678
